NORAD_CAT_ID,OBJECT_NAME,OBJECT_TYPE,EPOCH,MEAN_MOTION,ECCENTRICITY,INCLINATION,RA_OF_ASC_NODE,ARG_OF_PERICENTER,MEAN_ANOMALY,BSTAR,MEAN_MOTION_DOT,MEAN_MOTION_DDOT,TLE_LINE0,TLE_LINE1,TLE_LINE2,SEMIMAJOR_AXIS,PERIOD,APOGEE,PERIGEE,DECAYED
53859.0,STARLINK-4790,PAYLOAD,2023-06-12 02:52:19,15.08844714,0.0001413,53.2163,104.998,90.2907,269.8247,8.7385e-05,1.103e-05,0.0,0 STARLINK-4790,1 53859U 22114AT  23163.11967506  .00001103  00000-0  87385-4 0  9990,2 53859  53.2163 104.9980 0001413  90.2907 269.8247 15.08844714 41307,6917.866,95.437,540.708,538.753,0.0
53859.0,STARLINK-4790,PAYLOAD,2023-06-13 02:43:07,15.08834846,0.0001426,53.2173,100.5373,89.9763,270.1393,8.4339e-06,-1.54e-06,0.0,0 STARLINK-4790,1 53859U 22114AT  23164.11328476 -.00000154  00000-0  84339-5 0  9991,2 53859  53.2173 100.5373 0001426  89.9763 270.1393 15.08834846 41453,6917.896,95.438,540.748,538.775,0.0
53859.0,STARLINK-4790,PAYLOAD,2023-06-13 05:53:54,15.08833232,0.0001435,53.2175,99.943,90.0499,270.0657,-5.1874e-06,-3.7e-06,0.0,0 STARLINK-4790,1 53859U 22114AT  23164.24576642 -.00000370  00000-0 -51874-5 0  9994,2 53859  53.2175  99.9430 0001435  90.0499 270.0657 15.08833232 42012,6917.901,95.438,540.759,538.773,0.0
53859.0,STARLINK-4790,PAYLOAD,2023-06-13 20:12:22,15.08838502,0.0001204,53.2168,97.2664,90.5048,269.6082,-1.7258e-05,-5.62e-06,0.0,0 STARLINK-4790,1 53859U 22114AT  23164.84192462 -.00000562  00000-0 -17258-4 0  9994,2 53859  53.2168  97.2664 0001204  90.5048 269.6082 15.08838502 42104,6917.885,95.438,540.583,538.917,0.0
53859.0,STARLINK-4790,PAYLOAD,2023-06-14 02:33:54,15.08845988,0.0001206,53.2167,96.0768,90.1634,269.9496,4.2399e-05,3.87e-06,0.0,0 STARLINK-4790,1 53859U 22114AT  23165.10687768  .00000387  00000-0  42399-4 0  9999,2 53859  53.2167  96.0768 0001206  90.1634 269.9496 15.08845988 41606,6917.862,95.437,540.561,538.893,0.0
53859.0,STARLINK-4790,PAYLOAD,2023-06-14 04:09:17,15.08845426,0.0001188,53.2166,95.7798,89.4141,270.6987,4.0388e-05,3.55e-06,0.0,0 STARLINK-4790,1 53859U 22114AT  23165.17311825  .00000355  00000-0  40388-4 0  9995,2 53859  53.2166  95.7798 0001188  89.4141 270.6987 15.08845426 42159,6917.864,95.437,540.551,538.907,0.0
53859.0,STARLINK-4790,PAYLOAD,2023-06-14 20:03:09,15.08829859,0.0001273,53.2186,92.8093,102.2998,257.8136,-1.2421e-05,-4.85e-06,0.0,0 STARLINK-4790,1 53859U 22114AT  23165.83553142 -.00000485  00000-0 -12421-4 0  9991,2 53859  53.2186  92.8093 0001273 102.2998 257.8136 15.08829859 42252,6917.911,95.438,540.657,538.896,0.0
53859.0,STARLINK-4790,PAYLOAD,2023-06-15 02:24:42,15.08832155,0.0001123,53.2166,91.6186,97.8851,262.2269,-1.7551e-05,-5.67e-06,0.0,0 STARLINK-4790,1 53859U 22114AT  23166.10049154 -.00000567  00000-0 -17551-4 0  9995,2 53859  53.2166  91.6186 0001123  97.8851 262.2269 15.08832155 41755,6917.904,95.438,540.546,538.992,0.0
53859.0,STARLINK-4790,PAYLOAD,2023-06-15 04:00:05,15.08833745,0.000111,53.2169,91.3208,94.4044,265.7075,-5.7558e-06,-3.79e-06,0.0,0 STARLINK-4790,1 53859U 22114AT  23166.16673058 -.00000379  00000-0 -57558-5 0  9990,2 53859  53.2169  91.3208 0001110  94.4044 265.7075 15.08833745 42304,6917.9,95.438,540.532,538.997,0.0
53859.0,STARLINK-4790,PAYLOAD,2023-06-15 23:04:42,15.0884153,0.0001115,53.217,87.7523,95.5607,264.5512,1.6677e-05,-2.2e-07,0.0,0 STARLINK-4790,1 53859U 22114AT  23166.96160708 -.00000022  00000-0  16677-4 0  9991,2 53859  53.2170  87.7523 0001115  95.5607 264.5512 15.08841530 41883,6917.876,95.437,540.512,538.969,0.0
53859.0,STARLINK-4790,PAYLOAD,2023-06-16 03:50:51,15.08848684,0.0001123,53.217,86.8598,94.1935,265.9186,8.1589e-05,1.011e-05,0.0,0 STARLINK-4790,1 53859U 22114AT  23167.16032052  .00001011  00000-0  81589-4 0  9996,2 53859  53.2170  86.8598 0001123  94.1935 265.9186 15.08848684 41916,6917.854,95.437,540.496,538.942,0.0
53859.0,STARLINK-4790,PAYLOAD,2023-06-16 11:47:47,15.08847098,0.0001171,53.2176,85.3726,86.2435,273.8692,4.9122e-05,4.94e-06,0.0,0 STARLINK-4790,1 53859U 22114AT  23167.49152197  .00000494  00000-0  49122-4 0  9996,2 53859  53.2176  85.3726 0001171  86.2435 273.8692 15.08847098 42503,6917.859,95.437,540.534,538.914,0.0
53859.0,STARLINK-4790,PAYLOAD,2023-06-16 18:09:20,15.08842051,0.0001307,53.2174,84.1837,82.6094,277.5046,0.00012328,1.675e-05,0.0,0 STARLINK-4790,1 53859U 22114AT  23167.75648332  .00001675  00000-0  12328-3 0  9995,2 53859  53.2174  84.1837 0001307  82.6094 277.5046 15.08842051 42545,6917.874,95.437,540.643,538.835,0.0
53859.0,STARLINK-4790,PAYLOAD,2023-06-17 03:41:38,15.08846559,0.0001272,53.2171,82.3996,82.9868,277.1269,0.0001453,2.026e-05,0.0,0 STARLINK-4790,1 53859U 22114AT  23168.15391892  .00002026  00000-0  14530-3 0  9994,2 53859  53.2171  82.3996 0001272  82.9868 277.1269 15.08846559 42068,6917.86,95.437,540.605,538.845,0.0
53859.0,STARLINK-4790,PAYLOAD,2023-06-17 11:38:34,15.08838524,0.0001123,53.2169,80.9122,93.1876,266.9245,2.9018e-05,1.74e-06,0.0,0 STARLINK-4790,1 53859U 22114AT  23168.48512589  .00000174  00000-0  29018-4 0  9998,2 53859  53.2169  80.9122 0001123  93.1876 266.9245 15.08838524 42656,6917.885,95.438,540.527,538.973,0.0
53859.0,STARLINK-4790,PAYLOAD,2023-06-17 18:00:08,15.08836355,0.0001541,53.2161,79.7237,87.2503,272.8665,-8.8633e-05,-1.698e-05,0.0,0 STARLINK-4790,1 53859U 22114AT  23168.75009405 -.00001698  00000-0 -88633-4 0  9998,2 53859  53.2161  79.7237 0001541  87.2503 272.8665 15.08836355 42153,6917.892,95.438,540.823,538.69,0.0
53859.0,STARLINK-4790,PAYLOAD,2023-06-18 11:29:22,15.08837237,0.0001333,53.2171,76.4516,96.9516,263.1628,-3.2596e-05,-8.07e-06,0.0,0 STARLINK-4790,1 53859U 22114AT  23169.47873243 -.00000807  00000-0 -32596-4 0  9995,2 53859  53.2171  76.4516 0001333  96.9516 263.1628 15.08837237 42802,6917.889,95.438,540.676,538.832,0.0
53859.0,STARLINK-4790,PAYLOAD,2023-06-19 03:23:12,15.08852893,0.0001213,53.2169,73.4774,98.0054,262.1076,3.7375e-05,3.07e-06,0.0,0 STARLINK-4790,1 53859U 22114AT  23170.14111917  .00000307  00000-0  37375-4 0  9997,2 53859  53.2169  73.4774 0001213  98.0054 262.1076 15.08852893 42361,6917.841,95.437,540.545,538.867,0.0
53859.0,STARLINK-4790,PAYLOAD,2023-06-20 00:03:14,15.08831331,0.0001036,53.2173,69.6123,95.544,264.567,0.00014005,1.941e-05,0.0,0 STARLINK-4790,1 53859U 22114AT  23171.00225259  .00001941  00000-0  14005-3 0  9997,2 53859  53.2173  69.6123 0001036  95.5440 264.5670 15.08831331 42499,6917.907,95.438,540.489,539.055,0.0
53859.0,STARLINK-4790,PAYLOAD,2023-06-20 20:43:15,15.08840089,0.0001127,53.2174,65.7468,94.7773,265.3348,2.7526e-05,1.5e-06,0.0,0 STARLINK-4790,1 53859U 22114AT  23171.86337242  .00000150  00000-0  27526-4 0  9991,2 53859  53.2174  65.7468 0001127  94.7773 265.3348 15.08840089 43166,6917.88,95.438,540.525,538.965,0.0
53859.0,STARLINK-4790,PAYLOAD,2023-06-20 23:54:01,15.08844108,0.0001097,53.2174,65.1542,88.4503,271.6615,7.8372e-05,9.6e-06,0.0,0 STARLINK-4790,1 53859U 22114AT  23171.99584880  .00000960  00000-0  78372-4 0  9991,2 53859  53.2174  65.1542 0001097  88.4503 271.6615 15.08844108 42645,6917.868,95.437,540.492,538.974,0.0
53859.0,STARLINK-4790,PAYLOAD,2023-06-21 09:26:20,15.08846764,0.0001034,53.2177,63.3707,91.8005,268.3106,2.6042e-05,1.27e-06,0.0,0 STARLINK-4790,1 53859U 22114AT  23172.39328752  .00000127  00000-0  26042-4 0  9992,2 53859  53.2177  63.3707 0001034  91.8005 268.3106 15.08846764 43242,6917.86,95.437,540.44,539.009,0.0
53859.0,STARLINK-4790,PAYLOAD,2023-06-21 20:34:03,15.08830018,0.0001107,53.2175,61.2886,95.6354,264.4765,-4.58e-05,-1.016e-05,0.0,0 STARLINK-4790,1 53859U 22114AT  23172.85698239 -.00001016  00000-0 -45800-4 0  9996,2 53859  53.2175  61.2886 0001107  95.6354 264.4765 15.08830018 43316,6917.911,95.438,540.542,539.01,0.0
53859.0,STARLINK-4790,PAYLOAD,2023-06-22 01:20:12,15.08837133,0.0001132,53.2173,60.3961,89.5748,270.5374,3.1635e-05,2.16e-06,0.0,0 STARLINK-4790,1 53859U 22114AT  23173.05569626  .00000216  00000-0  31635-4 0  9996,2 53859  53.2173  60.3961 0001132  89.5748 270.5374 15.08837133 42807,6917.889,95.438,540.537,538.971,0.0
53859.0,STARLINK-4790,PAYLOAD,2023-06-23 01:10:58,15.08852918,0.0001114,53.2175,55.9348,93.912,266.1999,0.00013133,1.804e-05,0.0,0 STARLINK-4790,1 53859U 22114AT  23174.04928637  .00001804  00000-0  13133-3 0  9993,2 53859  53.2175  55.9348 0001114  93.9120 266.1999 15.08852918 42959,6917.841,95.437,540.477,538.935,0.0
53859.0,STARLINK-4790,PAYLOAD,2023-06-23 09:07:54,15.08843292,0.0001303,53.2176,54.4483,82.3156,277.7984,8.3445e-05,1.04e-05,0.0,0 STARLINK-4790,1 53859U 22114AT  23174.38049205  .00001040  00000-0  83445-4 0  9991,2 53859  53.2176  54.4483 0001303  82.3156 277.7984 15.08843292 43009,6917.87,95.437,540.637,538.834,0.0
53859.0,STARLINK-4790,PAYLOAD,2023-06-24 08:58:41,15.08839645,0.0001221,53.2181,49.9887,81.9971,278.1159,5.7548e-05,6.28e-06,0.0,0 STARLINK-4790,1 53859U 22114AT  23175.37409687  .00000628  00000-0  57548-4 0  9991,2 53859  53.2181  49.9887 0001221  81.9971 278.1159 15.08839645 43153,6917.881,95.438,540.591,538.902,0.0
53859.0,STARLINK-4790,PAYLOAD,2023-06-25 00:52:32,15.08849728,0.0001126,53.218,47.0139,84.0957,276.0164,8.7781e-05,1.11e-05,0.0,0 STARLINK-4790,1 53859U 22114AT  23176.03648962  .00001110  00000-0  87781-4 0  9995,2 53859  53.2180  47.0139 0001126  84.0957 276.0164 15.08849728 43250,6917.851,95.437,540.495,538.937,0.0
53859.0,STARLINK-4790,PAYLOAD,2023-06-25 15:11:01,15.08838186,0.0001353,53.218,44.3393,84.2194,275.8953,7.8942e-05,9.69e-06,0.0,0 STARLINK-4790,1 53859U 22114AT  23176.63265687  .00000969  00000-0  78942-4 0  9990,2 53859  53.2180  44.3393 0001353  84.2194 275.8953 15.08838186 43348,6917.886,95.438,540.687,538.815,0.0
53859.0,STARLINK-4790,PAYLOAD,2023-06-26 21:23:21,15.08837575,0.0001258,53.2175,38.6874,89.2195,270.8942,-3.7607e-05,-8.86e-06,0.0,0 STARLINK-4790,1 53859U 22114AT  23177.89122181 -.00000886  00000-0 -37607-4 0  9993,2 53859  53.2175  38.6874 0001258  89.2195 270.8942 15.08837575 43537,6917.888,95.438,540.623,538.883,0.0
